ADRAS-J                 
1 58992U 24034A   24081.88173529  .00008105  00000+0  75871-3 0  9998
2 58992  98.2040  51.0485 0044015 338.0837  21.8497 14.93625461  4834
